OBJECT_NAME,OBJECT_ID,EPOCH,MEAN_MOTION,ECCENTRICITY,INCLINATION,RA_OF_ASC_NODE,ARG_OF_PERICENTER,MEAN_ANOMALY,EPHEMERIS_TYPE,CLASSIFICATION_TYPE,NORAD_CAT_ID,ELEMENT_SET_NO,REV_AT_EPOCH,BSTAR,MEAN_MOTION_DOT,MEAN_MOTION_DDOT
SL-14 R/B,1990-018B,2026-06-04T01:11:39.863616,14.82207440,.00165954,82.5200,142.3872,162.6490,197.5296,0,U,20511,999,93537,.52657933E-4,.444E-5,0
HST,1990-037B,2026-06-02T08:13:52.267584,15.30586461,.00017007,28.4711,182.0162,354.7953,5.2625,0,U,20580,999,78629,.18209235E-3,.5773E-4,0
SL-16 R/B,1990-046B,2026-06-04T01:58:34.128480,14.15019227,.00142721,70.9974,116.4705,181.7301,178.3775,0,U,20625,999,86061,.93491221E-4,.134E-5,0
COSMOS 2084,1990-055A,2026-06-04T01:09:10.249056,15.06060518,.00056203,62.7909,40.9352,255.1473,104.9006,0,U,20663,999,94932,.18030986E-3,.2445E-4,0
SL-6 R/B(2),1990-055D,2026-06-03T22:49:38.805312,15.03956034,.00385087,62.7840,320.4153,3.3045,356.8301,0,U,20666,999,95116,.14882475E-3,.189E-4,0
SL-8 R/B,1990-078B,2026-06-04T02:49:57.926784,14.91836998,.03533827,82.9008,173.4473,82.4230,281.6975,0,U,20775,999,82217,.49078535E-3,.17413E-3,0
SL-8 R/B,1991-006B,2026-06-03T23:46:48.176832,13.77505004,.00230274,82.9415,105.8504,149.9397,281.1794,0,U,21088,999,77595,.28374863E-4,.44E-6,0
OKEAN-3,1991-039A,2026-06-03T15:27:58.280256,15.05266632,.00147244,82.5174,253.5133,43.5026,316.7359,0,U,21397,999,87796,.18089469E-3,.2618E-4,0
COSMOS 2151,1991-042A,2026-06-04T17:19:50.933856,15.00403015,.0013589,82.4963,359.7115,121.4118,238.8437,0,U,21422,999,87624,.14794E-3,.1889E-4,0
SL-14 R/B,1991-042B,2026-06-04T01:17:07.096704,14.81893799,.00159767,82.4916,139.2120,321.7540,38.2540,0,U,21423,999,86586,.55391057E-4,.462E-5,0
ERS-1,1991-050A,2026-06-04T00:40:07.738176,14.39508652,.00309173,98.7800,175.4041,307.4831,52.3545,0,U,21574,999,82815,.9844611E-4,.262E-5,0
ARIANE 40 R/B,1991-050F,2026-06-04T01:57:57.192480,14.42949199,.00036328,98.1881,204.0084,151.1454,208.9939,0,U,21610,999,83145,.12386687E-3,.373E-5,0
INTERCOSMOS 25,1991-086A,2026-06-03T07:53:19.226400,12.12177492,.14845825,82.6052,258.1959,292.3131,52.7351,0,U,21819,999,50706,.20370766E-3,.1025E-4,0
SL-8 R/B,1992-008B,2026-06-04T02:36:52.053984,13.75973678,.00332543,82.9272,203.5110,252.4121,165.6806,0,U,21876,999,72130,.30444607E-4,.45E-6,0
SL-8 R/B,1992-020B,2026-06-03T07:37:09.801120,13.75547502,.00304125,82.9301,90.1587,60.0314,56.2183,0,U,21938,999,71290,.48506018E-4,.62E-6,0
USA 81,1992-023A,2026-06-03T07:17:09.451104,14.32394120,.0002699,85.0074,82.0194,97.3286,262.8213,0,U,21949,999,10704,.69610406E-4,.208E-5,0
COSMOS 2219,1992-076A,2026-06-04T02:29:57.719328,14.14095971,.00159897,71.0583,197.4225,65.5619,294.7169,0,U,22219,999,73059,-.57137902E-4,-.156E-5,0
SL-16 R/B,1992-076B,2026-06-04T01:11:28.121856,14.16872825,.00142764,71.0012,6.4572,316.0540,155.9169,0,U,22220,999,73406,-.14280442E-4,-.77E-6,0
COSMOS 2221,1992-080A,2026-06-04T02:24:52.327296,14.96500118,.00125853,82.5038,196.3020,260.7413,99.2386,0,U,22236,999,79371,.14645704E-3,.1691E-4,0
SL-16 R/B,1992-093B,2026-06-04T02:21:01.814688,14.15464748,.00046646,71.0204,182.8693,205.0986,154.9911,0,U,22285,999,72538,.58489477E-4,.67E-6,0
COSMOS 2228,1992-094A,2026-06-04T17:26:17.409696,14.97539535,.0018158,82.5167,153.9781,14.8591,345.3161,0,U,22286,999,78908,.21091E-3,.2494E-4,0
SL-16 R/B,1993-016B,2026-06-04T01:50:18.356640,14.15308617,.00110445,71.0082,33.7448,202.8538,157.2095,0,U,22566,999,71439,-.26065526E-4,-.98E-6,0
COSMOS 2242,1993-024A,2026-06-04T03:29:39.706944,14.96864609,.0016617,82.5183,184.0195,20.4483,339.7401,0,U,22626,999,79332,.16628814E-3,.1937E-4,0
SL-16 R/B,1993-059B,2026-06-04T01:54:40.063104,14.17243348,.00148805,70.9886,188.9455,76.8485,283.4298,0,U,22803,999,69177,-.18235526E-4,-.85E-6,0
ARIANE 40 R/B,1993-061H,2026-06-04T01:51:51.418080,14.32902182,.00112863,98.4820,222.2065,34.5702,325.6215,0,U,22830,999,70647,.11204477E-3,.263E-5,0
COSMOS 2278,1994-023A,2026-06-03T14:20:15.518112,14.14389092,.00106479,71.0539,355.3603,258.3884,101.6044,0,U,23087,999,65695,.20947027E-3,.354E-5,0
SL-16 R/B,1994-023B,2026-06-03T14:31:30.121536,14.15018195,.00036145,70.9999,250.4545,202.8556,157.2406,0,U,23088,999,65824,.13615418E-4,-.21E-6,0
SL-16 R/B,1994-074B,2026-06-04T02:17:07.585152,14.79490956,.00053312,97.6996,182.3613,308.1191,117.6539,0,U,23343,999,70002,.77460097E-4,.53E-5,0
SL-16 R/B,1994-077B,2026-06-04T02:50:45.976416,14.15575309,.00024398,70.9811,170.6569,336.1230,23.9779,0,U,23405,999,62846,-.10760412E-3,-.259E-5,0
ARIANE 40+ R/B,1995-021B,2026-06-04T16:40:18.653376,14.39826399,.0005746,98.4413,225.9496,234.6483,238.4905,0,U,23561,999,63176,.11488E-3,.317E-5,0
